{"type":"FeatureCollection","name":"Jakarta Barat ADM2","features":[{"type":"Feature","properties":{"shapeName":"Kota Jakarta Barat","shapeISO":"","shapeID":"22746128B58252967349746","shapeGroup":"IDN","shapeType":"ADM2"},"geometry":{"type":"Polygon","coordinates":[[[106.71137910000004,-6.09595],[106.70410180000005,-6.095236799999952],[106.70214860000004,-6.09676079999997],[106.69196760000005,-6.095673899999952],[106.68723570000009,-6.097140699999954],[106.68895740000005,-6.106362299999944],[106.69368760000003,-6.107194399999969],[106.69788380000006,-6.110893699999963],[106.69640370000008,-6.112876899999947],[106.68901850000009,-6.114240699999925],[106.68969750000008,-6.121171],[106.68708060000006,-6.128622099999973],[106.69139880000006,-6.133455799999979],[106.691704,-6.136499899999933],[106.68621080000008,-6.14306449999998],[106.68810270000006,-6.159980499999961],[106.68997210000003,-6.16003319999993],[106.68882770000005,-6.172126799999944],[106.70488760000006,-6.179064299999936],[106.71706410000007,-6.186707],[106.71691150000004,-6.193122399999936],[106.72405090000007,-6.191571899999929],[106.72439580000008,-6.207603099999972],[106.72016930000007,-6.209604299999967],[106.71814310000008,-6.217743899999959],[106.71823040000004,-6.224172299999964],[106.73731550000008,-6.223623099999941],[106.76555,-6.222980799999959],[106.76703,-6.22541],[106.76430820000007,-6.227256],[106.77841620000004,-6.226909],[106.77774830000004,-6.213585899999941],[106.78317280000005,-6.212946899999963],[106.78314230000007,-6.206719899999939],[106.788994,-6.20849329999993],[106.79238910000004,-6.207788],[106.79605880000008,-6.20758109999997],[106.79771440000007,-6.203137],[106.80428330000007,-6.197340499999939],[106.80674760000005,-6.189106],[106.81065390000003,-6.188723099999947],[106.80963150000008,-6.179301799999962],[106.79814930000003,-6.161384599999963],[106.80061360000008,-6.160232599999972],[106.80142990000007,-6.158043],[106.80159020000008,-6.160112399999946],[106.80400870000005,-6.161744599999963],[106.82028220000007,-6.159548299999926],[106.82830830000006,-6.162252899999942],[106.82633230000005,-6.147045699999978],[106.821274,-6.136870899999963],[106.81674550000008,-6.137063599999976],[106.81503310000005,-6.13024189999993],[106.81318690000006,-6.130124199999955],[106.80114,-6.133650799999941],[106.80052210000008,-6.141887199999928],[106.79001070000004,-6.142329899999936],[106.77508560000007,-6.145231699999954],[106.77488730000005,-6.14141369999993],[106.76822680000004,-6.140689899999927],[106.75085470000005,-6.134427099999925],[106.733252,-6.123161099999948],[106.72741720000005,-6.11758089999995],[106.71137910000004,-6.09595]]]}}]}